{
  "norad_id": 58206,
  "name": "STARLINK-30800",
  "history": [
    {
      "epoch": "2026-03-28T16:59:08.357568Z",
      "apogee_km": 483.5538219245882,
      "perigee_km": 482.53768075911466,
      "latitude_deg": -5.5797134973899944e-05,
      "longitude_deg": 6.281805390821271,
      "height_km": 482.9005601938376,
      "semi_major_axis_km": 6861.182751341851,
      "eccentricity": 7.405e-05,
      "inclination_deg": 43.0025,
      "raan_deg": 87.191,
      "arg_perigee_deg": 261.1213,
      "mean_anomaly_deg": 98.9554,
      "mean_motion_rev_day": 15.27581117
    },
    {
      "epoch": "2026-03-29T00:49:55.259040Z",
      "apogee_km": 483.9080448442319,
      "perigee_km": 482.26546787696043,
      "latitude_deg": 2.4908459604657893e-05,
      "longitude_deg": -113.58087006282204,
      "height_km": 482.9030591123778,
      "semi_major_axis_km": 6861.223756360596,
      "eccentricity": 0.0001197,
      "inclination_deg": 43.0029,
      "raan_deg": 85.3459,
      "arg_perigee_deg": 267.2463,
      "mean_anomaly_deg": 92.8252,
      "mean_motion_rev_day": 15.27567423
    },
    {
      "epoch": "2026-03-30T00:22:15.585888Z",
      "apogee_km": 483.79658374149676,
      "perigee_km": 482.2692873138485,
      "latitude_deg": 2.0551219790026555e-05,
      "longitude_deg": -113.17158094483972,
      "height_km": 482.9297628067534,
      "semi_major_axis_km": 6861.169935527672,
      "eccentricity": 0.0001113,
      "inclination_deg": 43.0019,
      "raan_deg": 79.8066,
      "arg_perigee_deg": 260.9447,
      "mean_anomaly_deg": 99.1279,
      "mean_motion_rev_day": 15.27585397
    }
  ]
}